{"type": "FeatureCollection", "features": [{"type": "Feature", "properties": {"CTUID": "535000", "median_household_income": 113957, "income_quintile": 4, "pop_2021": 5472}, "geometry": {"type": "Polygon", "coordinates": [[[-79.38, 43.65], [-79.33, 43.65], [-79.33, 43.699999999999996], [-79.38, 43.699999999999996], [-79.38, 43.65]]]}}, {"type": "Feature", "properties": {"CTUID": "535001", "median_household_income": 115310, "income_quintile": 2, "pop_2021": 6249}, "geometry": {"type": "Polygon", "coordinates": [[[-79.33, 43.65], [-79.28, 43.65], [-79.28, 43.699999999999996], [-79.33, 43.699999999999996], [-79.33, 43.65]]]}}, {"type": "Feature", "properties": {"CTUID": "535002", "median_household_income": 70736, "income_quintile": 1, "pop_2021": 6149}, "geometry": {"type": "Polygon", "coordinates": [[[-79.28, 43.65], [-79.23, 43.65], [-79.23, 43.699999999999996], [-79.28, 43.699999999999996], [-79.28, 43.65]]]}}, {"type": "Feature", "properties": {"CTUID": "535003", "median_household_income": 117598, "income_quintile": 2, "pop_2021": 5435}, "geometry": {"type": "Polygon", "coordinates": [[[-79.22999999999999, 43.65], [-79.17999999999999, 43.65], [-79.17999999999999, 43.699999999999996], [-79.22999999999999, 43.699999999999996], [-79.22999999999999, 43.65]]]}}, {"type": "Feature", "properties": {"CTUID": "535004", "median_household_income": 107817, "income_quintile": 4, "pop_2021": 4748}, "geometry": {"type": "Polygon", "coordinates": [[[-79.17999999999999, 43.65], [-79.13, 43.65], [-79.13, 43.699999999999996], [-79.17999999999999, 43.699999999999996], [-79.17999999999999, 43.65]]]}}, {"type": "Feature", "properties": {"CTUID": "535005", "median_household_income": 68175, "income_quintile": 4, "pop_2021": 6406}, "geometry": {"type": "Polygon", "coordinates": [[[-79.13, 43.65], [-79.08, 43.65], [-79.08, 43.699999999999996], [-79.13, 43.699999999999996], [-79.13, 43.65]]]}}, {"type": "Feature", "properties": {"CTUID": "535006", "median_household_income": 115276, "income_quintile": 3, "pop_2021": 5506}, "geometry": {"type": "Polygon", "coordinates": [[[-79.08, 43.65], [-79.03, 43.65], [-79.03, 43.699999999999996], [-79.08, 43.699999999999996], [-79.08, 43.65]]]}}, {"type": "Feature", "properties": {"CTUID": "535007", "median_household_income": 44474, "income_quintile": 1, "pop_2021": 7448}, "geometry": {"type": "Polygon", "coordinates": [[[-79.03, 43.65], [-78.98, 43.65], [-78.98, 43.699999999999996], [-79.03, 43.699999999999996], [-79.03, 43.65]]]}}, {"type": "Feature", "properties": {"CTUID": "535008", "median_household_income": 45427, "income_quintile": 4, "pop_2021": 7453}, "geometry": {"type": "Polygon", "coordinates": [[[-78.97999999999999, 43.65], [-78.92999999999999, 43.65], [-78.92999999999999, 43.699999999999996], [-78.97999999999999, 43.699999999999996], [-78.97999999999999, 43.65]]]}}, {"type": "Feature", "properties": {"CTUID": "535009", "median_household_income": 100110, "income_quintile": 2, "pop_2021": 2119}, "geometry": {"type": "Polygon", "coordinates": [[[-78.92999999999999, 43.65], [-78.88, 43.65], [-78.88, 43.699999999999996], [-78.92999999999999, 43.699999999999996], [-78.92999999999999, 43.65]]]}}, {"type": "Feature", "properties": {"CTUID": "535010", "median_household_income": 74633, "income_quintile": 1, "pop_2021": 5168}, "geometry": {"type": "Polygon", "coordinates": [[[-79.38, 43.699999999999996], [-79.33, 43.699999999999996], [-79.33, 43.74999999999999], [-79.38, 43.74999999999999], [-79.38, 43.699999999999996]]]}}, {"type": "Feature", "properties": {"CTUID": "535011", "median_household_income": 91546, "income_quintile": 3, "pop_2021": 3527}, "geometry": {"type": "Polygon", "coordinates": [[[-79.33, 43.699999999999996], [-79.28, 43.699999999999996], [-79.28, 43.74999999999999], [-79.33, 43.74999999999999], [-79.33, 43.699999999999996]]]}}, {"type": "Feature", "properties": {"CTUID": "535012", "median_household_income": 129934, "income_quintile": 5, "pop_2021": 6760}, "geometry": {"type": "Polygon", "coordinates": [[[-79.28, 43.699999999999996], [-79.23, 43.699999999999996], [-79.23, 43.74999999999999], [-79.28, 43.74999999999999], [-79.28, 43.699999999999996]]]}}, {"type": "Feature", "properties": {"CTUID": "535013", "median_household_income": 126027, "income_quintile": 2, "pop_2021": 6150}, "geometry": {"type": "Polygon", "coordinates": [[[-79.22999999999999, 43.699999999999996], [-79.17999999999999, 43.699999999999996], [-79.17999999999999, 43.74999999999999], [-79.22999999999999, 43.74999999999999], [-79.22999999999999, 43.699999999999996]]]}}, {"type": "Feature", "properties": {"CTUID": "535014", "median_household_income": 124284, "income_quintile": 1, "pop_2021": 3243}, "geometry": {"type": "Polygon", "coordinates": [[[-79.17999999999999, 43.699999999999996], [-79.13, 43.699999999999996], [-79.13, 43.74999999999999], [-79.17999999999999, 43.74999999999999], [-79.17999999999999, 43.699999999999996]]]}}, {"type": "Feature", "properties": {"CTUID": "535015", "median_household_income": 103522, "income_quintile": 2, "pop_2021": 4323}, "geometry": {"type": "Polygon", "coordinates": [[[-79.13, 43.699999999999996], [-79.08, 43.699999999999996], [-79.08, 43.74999999999999], [-79.13, 43.74999999999999], [-79.13, 43.699999999999996]]]}}, {"type": "Feature", "properties": {"CTUID": "535016", "median_household_income": 78415, "income_quintile": 3, "pop_2021": 7344}, "geometry": {"type": "Polygon", "coordinates": [[[-79.08, 43.699999999999996], [-79.03, 43.699999999999996], [-79.03, 43.74999999999999], [-79.08, 43.74999999999999], [-79.08, 43.699999999999996]]]}}, {"type": "Feature", "properties": {"CTUID": "535017", "median_household_income": 88255, "income_quintile": 5, "pop_2021": 4726}, "geometry": {"type": "Polygon", "coordinates": [[[-79.03, 43.699999999999996], [-78.98, 43.699999999999996], [-78.98, 43.74999999999999], [-79.03, 43.74999999999999], [-79.03, 43.699999999999996]]]}}, {"type": "Feature", "properties": {"CTUID": "535018", "median_household_income": 68020, "income_quintile": 1, "pop_2021": 3310}, "geometry": {"type": "Polygon", "coordinates": [[[-78.97999999999999, 43.699999999999996], [-78.92999999999999, 43.699999999999996], [-78.92999999999999, 43.74999999999999], [-78.97999999999999, 43.74999999999999], [-78.97999999999999, 43.699999999999996]]]}}, {"type": "Feature", "properties": {"CTUID": "535019", "median_household_income": 61996, "income_quintile": 2, "pop_2021": 3658}, "geometry": {"type": "Polygon", "coordinates": [[[-78.92999999999999, 43.699999999999996], [-78.88, 43.699999999999996], [-78.88, 43.74999999999999], [-78.92999999999999, 43.74999999999999], [-78.92999999999999, 43.699999999999996]]]}}, {"type": "Feature", "properties": {"CTUID": "535020", "median_household_income": 78756, "income_quintile": 2, "pop_2021": 5694}, "geometry": {"type": "Polygon", "coordinates": [[[-79.38, 43.75], [-79.33, 43.75], [-79.33, 43.8], [-79.38, 43.8], [-79.38, 43.75]]]}}, {"type": "Feature", "properties": {"CTUID": "535021", "median_household_income": 57701, "income_quintile": 2, "pop_2021": 5974}, "geometry": {"type": "Polygon", "coordinates": [[[-79.33, 43.75], [-79.28, 43.75], [-79.28, 43.8], [-79.33, 43.8], [-79.33, 43.75]]]}}, {"type": "Feature", "properties": {"CTUID": "535022", "median_household_income": 124589, "income_quintile": 3, "pop_2021": 7770}, "geometry": {"type": "Polygon", "coordinates": [[[-79.28, 43.75], [-79.23, 43.75], [-79.23, 43.8], [-79.28, 43.8], [-79.28, 43.75]]]}}, {"type": "Feature", "properties": {"CTUID": "535023", "median_household_income": 43489, "income_quintile": 5, "pop_2021": 4565}, "geometry": {"type": "Polygon", "coordinates": [[[-79.22999999999999, 43.75], [-79.17999999999999, 43.75], [-79.17999999999999, 43.8], [-79.22999999999999, 43.8], [-79.22999999999999, 43.75]]]}}, {"type": "Feature", "properties": {"CTUID": "535024", "median_household_income": 71954, "income_quintile": 4, "pop_2021": 7608}, "geometry": {"type": "Polygon", "coordinates": [[[-79.17999999999999, 43.75], [-79.13, 43.75], [-79.13, 43.8], [-79.17999999999999, 43.8], [-79.17999999999999, 43.75]]]}}, {"type": "Feature", "properties": {"CTUID": "535025", "median_household_income": 113247, "income_quintile": 5, "pop_2021": 3196}, "geometry": {"type": "Polygon", "coordinates": [[[-79.13, 43.75], [-79.08, 43.75], [-79.08, 43.8], [-79.13, 43.8], [-79.13, 43.75]]]}}, {"type": "Feature", "properties": {"CTUID": "535026", "median_household_income": 132731, "income_quintile": 1, "pop_2021": 7508}, "geometry": {"type": "Polygon", "coordinates": [[[-79.08, 43.75], [-79.03, 43.75], [-79.03, 43.8], [-79.08, 43.8], [-79.08, 43.75]]]}}, {"type": "Feature", "properties": {"CTUID": "535027", "median_household_income": 127503, "income_quintile": 1, "pop_2021": 3488}, "geometry": {"type": "Polygon", "coordinates": [[[-79.03, 43.75], [-78.98, 43.75], [-78.98, 43.8], [-79.03, 43.8], [-79.03, 43.75]]]}}, {"type": "Feature", "properties": {"CTUID": "535028", "median_household_income": 110595, "income_quintile": 4, "pop_2021": 7719}, "geometry": {"type": "Polygon", "coordinates": [[[-78.97999999999999, 43.75], [-78.92999999999999, 43.75], [-78.92999999999999, 43.8], [-78.97999999999999, 43.8], [-78.97999999999999, 43.75]]]}}, {"type": "Feature", "properties": {"CTUID": "535029", "median_household_income": 113437, "income_quintile": 4, "pop_2021": 2410}, "geometry": {"type": "Polygon", "coordinates": [[[-78.92999999999999, 43.75], [-78.88, 43.75], [-78.88, 43.8], [-78.92999999999999, 43.8], [-78.92999999999999, 43.75]]]}}, {"type": "Feature", "properties": {"CTUID": "535030", "median_household_income": 123122, "income_quintile": 3, "pop_2021": 7718}, "geometry": {"type": "Polygon", "coordinates": [[[-79.38, 43.8], [-79.33, 43.8], [-79.33, 43.849999999999994], [-79.38, 43.849999999999994], [-79.38, 43.8]]]}}, {"type": "Feature", "properties": {"CTUID": "535031", "median_household_income": 30257, "income_quintile": 4, "pop_2021": 5119}, "geometry": {"type": "Polygon", "coordinates": [[[-79.33, 43.8], [-79.28, 43.8], [-79.28, 43.849999999999994], [-79.33, 43.849999999999994], [-79.33, 43.8]]]}}, {"type": "Feature", "properties": {"CTUID": "535032", "median_household_income": 123704, "income_quintile": 3, "pop_2021": 3817}, "geometry": {"type": "Polygon", "coordinates": [[[-79.28, 43.8], [-79.23, 43.8], [-79.23, 43.849999999999994], [-79.28, 43.849999999999994], [-79.28, 43.8]]]}}, {"type": "Feature", "properties": {"CTUID": "535033", "median_household_income": 43673, "income_quintile": 2, "pop_2021": 2350}, "geometry": {"type": "Polygon", "coordinates": [[[-79.22999999999999, 43.8], [-79.17999999999999, 43.8], [-79.17999999999999, 43.849999999999994], [-79.22999999999999, 43.849999999999994], [-79.22999999999999, 43.8]]]}}, {"type": "Feature", "properties": {"CTUID": "535034", "median_household_income": 88242, "income_quintile": 5, "pop_2021": 6469}, "geometry": {"type": "Polygon", "coordinates": [[[-79.17999999999999, 43.8], [-79.13, 43.8], [-79.13, 43.849999999999994], [-79.17999999999999, 43.849999999999994], [-79.17999999999999, 43.8]]]}}, {"type": "Feature", "properties": {"CTUID": "535035", "median_household_income": 137062, "income_quintile": 2, "pop_2021": 6446}, "geometry": {"type": "Polygon", "coordinates": [[[-79.13, 43.8], [-79.08, 43.8], [-79.08, 43.849999999999994], [-79.13, 43.849999999999994], [-79.13, 43.8]]]}}, {"type": "Feature", "properties": {"CTUID": "535036", "median_household_income": 127841, "income_quintile": 5, "pop_2021": 4567}, "geometry": {"type": "Polygon", "coordinates": [[[-79.08, 43.8], [-79.03, 43.8], [-79.03, 43.849999999999994], [-79.08, 43.849999999999994], [-79.08, 43.8]]]}}, {"type": "Feature", "properties": {"CTUID": "535037", "median_household_income": 41919, "income_quintile": 4, "pop_2021": 7994}, "geometry": {"type": "Polygon", "coordinates": [[[-79.03, 43.8], [-78.98, 43.8], [-78.98, 43.849999999999994], [-79.03, 43.849999999999994], [-79.03, 43.8]]]}}, {"type": "Feature", "properties": {"CTUID": "535038", "median_household_income": 62732, "income_quintile": 1, "pop_2021": 4239}, "geometry": {"type": "Polygon", "coordinates": [[[-78.97999999999999, 43.8], [-78.92999999999999, 43.8], [-78.92999999999999, 43.849999999999994], [-78.97999999999999, 43.849999999999994], [-78.97999999999999, 43.8]]]}}, {"type": "Feature", "properties": {"CTUID": "535039", "median_household_income": 106852, "income_quintile": 2, "pop_2021": 2092}, "geometry": {"type": "Polygon", "coordinates": [[[-78.92999999999999, 43.8], [-78.88, 43.8], [-78.88, 43.849999999999994], [-78.92999999999999, 43.849999999999994], [-78.92999999999999, 43.8]]]}}, {"type": "Feature", "properties": {"CTUID": "535040", "median_household_income": 60759, "income_quintile": 4, "pop_2021": 7208}, "geometry": {"type": "Polygon", "coordinates": [[[-79.38, 43.85], [-79.33, 43.85], [-79.33, 43.9], [-79.38, 43.9], [-79.38, 43.85]]]}}, {"type": "Feature", "properties": {"CTUID": "535041", "median_household_income": 39685, "income_quintile": 2, "pop_2021": 4525}, "geometry": {"type": "Polygon", "coordinates": [[[-79.33, 43.85], [-79.28, 43.85], [-79.28, 43.9], [-79.33, 43.9], [-79.33, 43.85]]]}}, {"type": "Feature", "properties": {"CTUID": "535042", "median_household_income": 95773, "income_quintile": 5, "pop_2021": 6022}, "geometry": {"type": "Polygon", "coordinates": [[[-79.28, 43.85], [-79.23, 43.85], [-79.23, 43.9], [-79.28, 43.9], [-79.28, 43.85]]]}}, {"type": "Feature", "properties": {"CTUID": "535043", "median_household_income": 46966, "income_quintile": 4, "pop_2021": 3217}, "geometry": {"type": "Polygon", "coordinates": [[[-79.22999999999999, 43.85], [-79.17999999999999, 43.85], [-79.17999999999999, 43.9], [-79.22999999999999, 43.9], [-79.22999999999999, 43.85]]]}}, {"type": "Feature", "properties": {"CTUID": "535044", "median_household_income": 142284, "income_quintile": 5, "pop_2021": 6429}, "geometry": {"type": "Polygon", "coordinates": [[[-79.17999999999999, 43.85], [-79.13, 43.85], [-79.13, 43.9], [-79.17999999999999, 43.9], [-79.17999999999999, 43.85]]]}}, {"type": "Feature", "properties": {"CTUID": "535045", "median_household_income": 31152, "income_quintile": 1, "pop_2021": 3577}, "geometry": {"type": "Polygon", "coordinates": [[[-79.13, 43.85], [-79.08, 43.85], [-79.08, 43.9], [-79.13, 43.9], [-79.13, 43.85]]]}}, {"type": "Feature", "properties": {"CTUID": "535046", "median_household_income": 112163, "income_quintile": 3, "pop_2021": 5565}, "geometry": {"type": "Polygon", "coordinates": [[[-79.08, 43.85], [-79.03, 43.85], [-79.03, 43.9], [-79.08, 43.9], [-79.08, 43.85]]]}}, {"type": "Feature", "properties": {"CTUID": "535047", "median_household_income": 39588, "income_quintile": 4, "pop_2021": 3093}, "geometry": {"type": "Polygon", "coordinates": [[[-79.03, 43.85], [-78.98, 43.85], [-78.98, 43.9], [-79.03, 43.9], [-79.03, 43.85]]]}}, {"type": "Feature", "properties": {"CTUID": "535048", "median_household_income": 45901, "income_quintile": 5, "pop_2021": 5798}, "geometry": {"type": "Polygon", "coordinates": [[[-78.97999999999999, 43.85], [-78.92999999999999, 43.85], [-78.92999999999999, 43.9], [-78.97999999999999, 43.9], [-78.97999999999999, 43.85]]]}}, {"type": "Feature", "properties": {"CTUID": "535049", "median_household_income": 143442, "income_quintile": 2, "pop_2021": 7152}, "geometry": {"type": "Polygon", "coordinates": [[[-78.92999999999999, 43.85], [-78.88, 43.85], [-78.88, 43.9], [-78.92999999999999, 43.9], [-78.92999999999999, 43.85]]]}}, {"type": "Feature", "properties": {"CTUID": "535050", "median_household_income": 76869, "income_quintile": 1, "pop_2021": 5647}, "geometry": {"type": "Polygon", "coordinates": [[[-79.38, 43.9], [-79.33, 43.9], [-79.33, 43.949999999999996], [-79.38, 43.949999999999996], [-79.38, 43.9]]]}}, {"type": "Feature", "properties": {"CTUID": "535051", "median_household_income": 99107, "income_quintile": 5, "pop_2021": 7861}, "geometry": {"type": "Polygon", "coordinates": [[[-79.33, 43.9], [-79.28, 43.9], [-79.28, 43.949999999999996], [-79.33, 43.949999999999996], [-79.33, 43.9]]]}}, {"type": "Feature", "properties": {"CTUID": "535052", "median_household_income": 33501, "income_quintile": 1, "pop_2021": 3139}, "geometry": {"type": "Polygon", "coordinates": [[[-79.28, 43.9], [-79.23, 43.9], [-79.23, 43.949999999999996], [-79.28, 43.949999999999996], [-79.28, 43.9]]]}}, {"type": "Feature", "properties": {"CTUID": "535053", "median_household_income": 35113, "income_quintile": 2, "pop_2021": 4638}, "geometry": {"type": "Polygon", "coordinates": [[[-79.22999999999999, 43.9], [-79.17999999999999, 43.9], [-79.17999999999999, 43.949999999999996], [-79.22999999999999, 43.949999999999996], [-79.22999999999999, 43.9]]]}}, {"type": "Feature", "properties": {"CTUID": "535054", "median_household_income": 31536, "income_quintile": 2, "pop_2021": 6901}, "geometry": {"type": "Polygon", "coordinates": [[[-79.17999999999999, 43.9], [-79.13, 43.9], [-79.13, 43.949999999999996], [-79.17999999999999, 43.949999999999996], [-79.17999999999999, 43.9]]]}}, {"type": "Feature", "properties": {"CTUID": "535055", "median_household_income": 99877, "income_quintile": 2, "pop_2021": 5632}, "geometry": {"type": "Polygon", "coordinates": [[[-79.13, 43.9], [-79.08, 43.9], [-79.08, 43.949999999999996], [-79.13, 43.949999999999996], [-79.13, 43.9]]]}}, {"type": "Feature", "properties": {"CTUID": "535056", "median_household_income": 145339, "income_quintile": 5, "pop_2021": 2122}, "geometry": {"type": "Polygon", "coordinates": [[[-79.08, 43.9], [-79.03, 43.9], [-79.03, 43.949999999999996], [-79.08, 43.949999999999996], [-79.08, 43.9]]]}}, {"type": "Feature", "properties": {"CTUID": "535057", "median_household_income": 97485, "income_quintile": 1, "pop_2021": 3198}, "geometry": {"type": "Polygon", "coordinates": [[[-79.03, 43.9], [-78.98, 43.9], [-78.98, 43.949999999999996], [-79.03, 43.949999999999996], [-79.03, 43.9]]]}}, {"type": "Feature", "properties": {"CTUID": "535058", "median_household_income": 139878, "income_quintile": 4, "pop_2021": 6929}, "geometry": {"type": "Polygon", "coordinates": [[[-78.97999999999999, 43.9], [-78.92999999999999, 43.9], [-78.92999999999999, 43.949999999999996], [-78.97999999999999, 43.949999999999996], [-78.97999999999999, 43.9]]]}}, {"type": "Feature", "properties": {"CTUID": "535059", "median_household_income": 114852, "income_quintile": 1, "pop_2021": 4503}, "geometry": {"type": "Polygon", "coordinates": [[[-78.92999999999999, 43.9], [-78.88, 43.9], [-78.88, 43.949999999999996], [-78.92999999999999, 43.949999999999996], [-78.92999999999999, 43.9]]]}}, {"type": "Feature", "properties": {"CTUID": "535060", "median_household_income": 129280, "income_quintile": 4, "pop_2021": 2499}, "geometry": {"type": "Polygon", "coordinates": [[[-79.38, 43.949999999999996], [-79.33, 43.949999999999996], [-79.33, 43.99999999999999], [-79.38, 43.99999999999999], [-79.38, 43.949999999999996]]]}}, {"type": "Feature", "properties": {"CTUID": "535061", "median_household_income": 83857, "income_quintile": 3, "pop_2021": 5358}, "geometry": {"type": "Polygon", "coordinates": [[[-79.33, 43.949999999999996], [-79.28, 43.949999999999996], [-79.28, 43.99999999999999], [-79.33, 43.99999999999999], [-79.33, 43.949999999999996]]]}}, {"type": "Feature", "properties": {"CTUID": "535062", "median_household_income": 139258, "income_quintile": 3, "pop_2021": 4344}, "geometry": {"type": "Polygon", "coordinates": [[[-79.28, 43.949999999999996], [-79.23, 43.949999999999996], [-79.23, 43.99999999999999], [-79.28, 43.99999999999999], [-79.28, 43.949999999999996]]]}}, {"type": "Feature", "properties": {"CTUID": "535063", "median_household_income": 102582, "income_quintile": 4, "pop_2021": 2873}, "geometry": {"type": "Polygon", "coordinates": [[[-79.22999999999999, 43.949999999999996], [-79.17999999999999, 43.949999999999996], [-79.17999999999999, 43.99999999999999], [-79.22999999999999, 43.99999999999999], [-79.22999999999999, 43.949999999999996]]]}}, {"type": "Feature", "properties": {"CTUID": "535064", "median_household_income": 138613, "income_quintile": 3, "pop_2021": 2697}, "geometry": {"type": "Polygon", "coordinates": [[[-79.17999999999999, 43.949999999999996], [-79.13, 43.949999999999996], [-79.13, 43.99999999999999], [-79.17999999999999, 43.99999999999999], [-79.17999999999999, 43.949999999999996]]]}}, {"type": "Feature", "properties": {"CTUID": "535065", "median_household_income": 140461, "income_quintile": 4, "pop_2021": 7323}, "geometry": {"type": "Polygon", "coordinates": [[[-79.13, 43.949999999999996], [-79.08, 43.949999999999996], [-79.08, 43.99999999999999], [-79.13, 43.99999999999999], [-79.13, 43.949999999999996]]]}}, {"type": "Feature", "properties": {"CTUID": "535066", "median_household_income": 31474, "income_quintile": 4, "pop_2021": 6685}, "geometry": {"type": "Polygon", "coordinates": [[[-79.08, 43.949999999999996], [-79.03, 43.949999999999996], [-79.03, 43.99999999999999], [-79.08, 43.99999999999999], [-79.08, 43.949999999999996]]]}}, {"type": "Feature", "properties": {"CTUID": "535067", "median_household_income": 40931, "income_quintile": 2, "pop_2021": 6404}, "geometry": {"type": "Polygon", "coordinates": [[[-79.03, 43.949999999999996], [-78.98, 43.949999999999996], [-78.98, 43.99999999999999], [-79.03, 43.99999999999999], [-79.03, 43.949999999999996]]]}}, {"type": "Feature", "properties": {"CTUID": "535068", "median_household_income": 116291, "income_quintile": 5, "pop_2021": 7785}, "geometry": {"type": "Polygon", "coordinates": [[[-78.97999999999999, 43.949999999999996], [-78.92999999999999, 43.949999999999996], [-78.92999999999999, 43.99999999999999], [-78.97999999999999, 43.99999999999999], [-78.97999999999999, 43.949999999999996]]]}}, {"type": "Feature", "properties": {"CTUID": "535069", "median_household_income": 90763, "income_quintile": 1, "pop_2021": 6890}, "geometry": {"type": "Polygon", "coordinates": [[[-78.92999999999999, 43.949999999999996], [-78.88, 43.949999999999996], [-78.88, 43.99999999999999], [-78.92999999999999, 43.99999999999999], [-78.92999999999999, 43.949999999999996]]]}}, {"type": "Feature", "properties": {"CTUID": "535070", "median_household_income": 64413, "income_quintile": 4, "pop_2021": 2664}, "geometry": {"type": "Polygon", "coordinates": [[[-79.38, 44.0], [-79.33, 44.0], [-79.33, 44.05], [-79.38, 44.05], [-79.38, 44.0]]]}}, {"type": "Feature", "properties": {"CTUID": "535071", "median_household_income": 32186, "income_quintile": 4, "pop_2021": 3069}, "geometry": {"type": "Polygon", "coordinates": [[[-79.33, 44.0], [-79.28, 44.0], [-79.28, 44.05], [-79.33, 44.05], [-79.33, 44.0]]]}}, {"type": "Feature", "properties": {"CTUID": "535072", "median_household_income": 63293, "income_quintile": 4, "pop_2021": 5872}, "geometry": {"type": "Polygon", "coordinates": [[[-79.28, 44.0], [-79.23, 44.0], [-79.23, 44.05], [-79.28, 44.05], [-79.28, 44.0]]]}}, {"type": "Feature", "properties": {"CTUID": "535073", "median_household_income": 72641, "income_quintile": 5, "pop_2021": 2318}, "geometry": {"type": "Polygon", "coordinates": [[[-79.22999999999999, 44.0], [-79.17999999999999, 44.0], [-79.17999999999999, 44.05], [-79.22999999999999, 44.05], [-79.22999999999999, 44.0]]]}}, {"type": "Feature", "properties": {"CTUID": "535074", "median_household_income": 145348, "income_quintile": 4, "pop_2021": 6989}, "geometry": {"type": "Polygon", "coordinates": [[[-79.17999999999999, 44.0], [-79.13, 44.0], [-79.13, 44.05], [-79.17999999999999, 44.05], [-79.17999999999999, 44.0]]]}}, {"type": "Feature", "properties": {"CTUID": "535075", "median_household_income": 140301, "income_quintile": 5, "pop_2021": 6216}, "geometry": {"type": "Polygon", "coordinates": [[[-79.13, 44.0], [-79.08, 44.0], [-79.08, 44.05], [-79.13, 44.05], [-79.13, 44.0]]]}}, {"type": "Feature", "properties": {"CTUID": "535076", "median_household_income": 137036, "income_quintile": 3, "pop_2021": 3496}, "geometry": {"type": "Polygon", "coordinates": [[[-79.08, 44.0], [-79.03, 44.0], [-79.03, 44.05], [-79.08, 44.05], [-79.08, 44.0]]]}}, {"type": "Feature", "properties": {"CTUID": "535077", "median_household_income": 128939, "income_quintile": 4, "pop_2021": 6352}, "geometry": {"type": "Polygon", "coordinates": [[[-79.03, 44.0], [-78.98, 44.0], [-78.98, 44.05], [-79.03, 44.05], [-79.03, 44.0]]]}}, {"type": "Feature", "properties": {"CTUID": "535078", "median_household_income": 90173, "income_quintile": 2, "pop_2021": 2044}, "geometry": {"type": "Polygon", "coordinates": [[[-78.97999999999999, 44.0], [-78.92999999999999, 44.0], [-78.92999999999999, 44.05], [-78.97999999999999, 44.05], [-78.97999999999999, 44.0]]]}}, {"type": "Feature", "properties": {"CTUID": "535079", "median_household_income": 95555, "income_quintile": 2, "pop_2021": 2887}, "geometry": {"type": "Polygon", "coordinates": [[[-78.92999999999999, 44.0], [-78.88, 44.0], [-78.88, 44.05], [-78.92999999999999, 44.05], [-78.92999999999999, 44.0]]]}}, {"type": "Feature", "properties": {"CTUID": "535080", "median_household_income": 52028, "income_quintile": 5, "pop_2021": 5433}, "geometry": {"type": "Polygon", "coordinates": [[[-79.38, 44.05], [-79.33, 44.05], [-79.33, 44.099999999999994], [-79.38, 44.099999999999994], [-79.38, 44.05]]]}}, {"type": "Feature", "properties": {"CTUID": "535081", "median_household_income": 89092, "income_quintile": 2, "pop_2021": 2340}, "geometry": {"type": "Polygon", "coordinates": [[[-79.33, 44.05], [-79.28, 44.05], [-79.28, 44.099999999999994], [-79.33, 44.099999999999994], [-79.33, 44.05]]]}}, {"type": "Feature", "properties": {"CTUID": "535082", "median_household_income": 65821, "income_quintile": 5, "pop_2021": 7857}, "geometry": {"type": "Polygon", "coordinates": [[[-79.28, 44.05], [-79.23, 44.05], [-79.23, 44.099999999999994], [-79.28, 44.099999999999994], [-79.28, 44.05]]]}}, {"type": "Feature", "properties": {"CTUID": "535083", "median_household_income": 61261, "income_quintile": 5, "pop_2021": 6445}, "geometry": {"type": "Polygon", "coordinates": [[[-79.22999999999999, 44.05], [-79.17999999999999, 44.05], [-79.17999999999999, 44.099999999999994], [-79.22999999999999, 44.099999999999994], [-79.22999999999999, 44.05]]]}}, {"type": "Feature", "properties": {"CTUID": "535084", "median_household_income": 34402, "income_quintile": 5, "pop_2021": 5737}, "geometry": {"type": "Polygon", "coordinates": [[[-79.17999999999999, 44.05], [-79.13, 44.05], [-79.13, 44.099999999999994], [-79.17999999999999, 44.099999999999994], [-79.17999999999999, 44.05]]]}}, {"type": "Feature", "properties": {"CTUID": "535085", "median_household_income": 87856, "income_quintile": 2, "pop_2021": 3103}, "geometry": {"type": "Polygon", "coordinates": [[[-79.13, 44.05], [-79.08, 44.05], [-79.08, 44.099999999999994], [-79.13, 44.099999999999994], [-79.13, 44.05]]]}}, {"type": "Feature", "properties": {"CTUID": "535086", "median_household_income": 77346, "income_quintile": 5, "pop_2021": 2296}, "geometry": {"type": "Polygon", "coordinates": [[[-79.08, 44.05], [-79.03, 44.05], [-79.03, 44.099999999999994], [-79.08, 44.099999999999994], [-79.08, 44.05]]]}}, {"type": "Feature", "properties": {"CTUID": "535087", "median_household_income": 58394, "income_quintile": 5, "pop_2021": 4155}, "geometry": {"type": "Polygon", "coordinates": [[[-79.03, 44.05], [-78.98, 44.05], [-78.98, 44.099999999999994], [-79.03, 44.099999999999994], [-79.03, 44.05]]]}}, {"type": "Feature", "properties": {"CTUID": "535088", "median_household_income": 116352, "income_quintile": 1, "pop_2021": 3412}, "geometry": {"type": "Polygon", "coordinates": [[[-78.97999999999999, 44.05], [-78.92999999999999, 44.05], [-78.92999999999999, 44.099999999999994], [-78.97999999999999, 44.099999999999994], [-78.97999999999999, 44.05]]]}}, {"type": "Feature", "properties": {"CTUID": "535089", "median_household_income": 91260, "income_quintile": 3, "pop_2021": 6146}, "geometry": {"type": "Polygon", "coordinates": [[[-78.92999999999999, 44.05], [-78.88, 44.05], [-78.88, 44.099999999999994], [-78.92999999999999, 44.099999999999994], [-78.92999999999999, 44.05]]]}}, {"type": "Feature", "properties": {"CTUID": "535090", "median_household_income": 42407, "income_quintile": 4, "pop_2021": 4443}, "geometry": {"type": "Polygon", "coordinates": [[[-79.38, 44.1], [-79.33, 44.1], [-79.33, 44.15], [-79.38, 44.15], [-79.38, 44.1]]]}}, {"type": "Feature", "properties": {"CTUID": "535091", "median_household_income": 133576, "income_quintile": 4, "pop_2021": 6346}, "geometry": {"type": "Polygon", "coordinates": [[[-79.33, 44.1], [-79.28, 44.1], [-79.28, 44.15], [-79.33, 44.15], [-79.33, 44.1]]]}}, {"type": "Feature", "properties": {"CTUID": "535092", "median_household_income": 135994, "income_quintile": 2, "pop_2021": 7005}, "geometry": {"type": "Polygon", "coordinates": [[[-79.28, 44.1], [-79.23, 44.1], [-79.23, 44.15], [-79.28, 44.15], [-79.28, 44.1]]]}}, {"type": "Feature", "properties": {"CTUID": "535093", "median_household_income": 102291, "income_quintile": 1, "pop_2021": 5065}, "geometry": {"type": "Polygon", "coordinates": [[[-79.22999999999999, 44.1], [-79.17999999999999, 44.1], [-79.17999999999999, 44.15], [-79.22999999999999, 44.15], [-79.22999999999999, 44.1]]]}}, {"type": "Feature", "properties": {"CTUID": "535094", "median_household_income": 70711, "income_quintile": 3, "pop_2021": 7443}, "geometry": {"type": "Polygon", "coordinates": [[[-79.17999999999999, 44.1], [-79.13, 44.1], [-79.13, 44.15], [-79.17999999999999, 44.15], [-79.17999999999999, 44.1]]]}}, {"type": "Feature", "properties": {"CTUID": "535095", "median_household_income": 105234, "income_quintile": 5, "pop_2021": 5187}, "geometry": {"type": "Polygon", "coordinates": [[[-79.13, 44.1], [-79.08, 44.1], [-79.08, 44.15], [-79.13, 44.15], [-79.13, 44.1]]]}}, {"type": "Feature", "properties": {"CTUID": "535096", "median_household_income": 125482, "income_quintile": 3, "pop_2021": 5753}, "geometry": {"type": "Polygon", "coordinates": [[[-79.08, 44.1], [-79.03, 44.1], [-79.03, 44.15], [-79.08, 44.15], [-79.08, 44.1]]]}}, {"type": "Feature", "properties": {"CTUID": "535097", "median_household_income": 33427, "income_quintile": 2, "pop_2021": 2117}, "geometry": {"type": "Polygon", "coordinates": [[[-79.03, 44.1], [-78.98, 44.1], [-78.98, 44.15], [-79.03, 44.15], [-79.03, 44.1]]]}}, {"type": "Feature", "properties": {"CTUID": "535098", "median_household_income": 72147, "income_quintile": 4, "pop_2021": 2191}, "geometry": {"type": "Polygon", "coordinates": [[[-78.97999999999999, 44.1], [-78.92999999999999, 44.1], [-78.92999999999999, 44.15], [-78.97999999999999, 44.15], [-78.97999999999999, 44.1]]]}}, {"type": "Feature", "properties": {"CTUID": "535099", "median_household_income": 127144, "income_quintile": 1, "pop_2021": 2284}, "geometry": {"type": "Polygon", "coordinates": [[[-78.92999999999999, 44.1], [-78.88, 44.1], [-78.88, 44.15], [-78.92999999999999, 44.15], [-78.92999999999999, 44.1]]]}}]}